{"type": "FeatureCollection", "features": [ {"type": "Feature", "properties": {"norad_id": 34077, "name": "IRIDIUM 33 DEB", "group": "iridium-33-debris", "lat": 36.67804716818918, "lon": -134.03993441024556, "alt_km": 678.6960521657093, "timestamp": "2025-12-19T04:59:48.691375+00:00", "meta": {"OBJECT_NAME": "IRIDIUM 33 DEB", "OBJECT_ID": "1997-051CL", "EPOCH": "2025-12-18T15:47:52.285920", "MEAN_MOTION": 14.64897264, "ECCENTRICITY": 0.00095369, "INCLINATION": 86.3856, "RA_OF_ASC_NODE": 48.9006, "ARG_OF_PERICENTER": 20.7053, "MEAN_ANOMALY": 103.9539, "EPHEMERIS_TYPE": 0, "CLASSIFICATION_TYPE": "U", "NORAD_CAT_ID": 34077, "ELEMENT_SET_NO": 999, "REV_AT_EPOCH": 88419, "BSTAR": 0.00073197929, "MEAN_MOTION_DOT": 3.936e-05, "MEAN_MOTION_DDOT": 0}, "tle": {"line1": "1 34077U 97051CL  25352.65824405  .00003936  00000+0  73198-3 0  9995", "line2": "2 34077  86.3856  48.9006 0009536  20.7053 103.9539 14.64897264884197"}}, "geometry": {"type": "Point", "coordinates": [-134.03993441024556, 36.67804716818918]}}, {"type": "Feature", "properties": {"norad_id": 34079, "name": "IRIDIUM 33 DEB", "group": "iridium-33-debris", "lat": -30.572211554698, "lon": -172.13435097511396, "alt_km": 626.2458227159159, "timestamp": "2025-12-19T04:59:48.691386+00:00", "meta": {"OBJECT_NAME": "IRIDIUM 33 DEB", "OBJECT_ID": "1997-051CN", "EPOCH": "2025-12-18T08:55:11.182080", "MEAN_MOTION": 14.83670039, "ECCENTRICITY": 0.00048742, "INCLINATION": 86.3769, "RA_OF_ASC_NODE": 6.101, "ARG_OF_PERICENTER": 348.9111, "MEAN_ANOMALY": 76.4164, "EPHEMERIS_TYPE": 0, "CLASSIFICATION_TYPE": "U", "NORAD_CAT_ID": 34079, "ELEMENT_SET_NO": 999, "REV_AT_EPOCH": 89061, "BSTAR": 0.0014010479, "MEAN_MOTION_DOT": 0.00011602, "MEAN_MOTION_DDOT": 0}, "tle": {"line1": "1 34079U 97051CN  25352.37165720  .00011602  00000+0  14010-2 0  9990", "line2": "2 34079  86.3769   6.1010 0004874 348.9111  76.4164 14.83670039890615"}}, "geometry": {"type": "Point", "coordinates": [-172.13435097511396, -30.572211554698]}}, {"type": "Feature", "properties": {"norad_id": 34088, "name": "IRIDIUM 33 DEB", "group": "iridium-33-debris", "lat": 53.66700451305159, "lon": -157.18035777286437, "alt_km": 583.9602015161172, "timestamp": "2025-12-19T04:59:48.691396+00:00", "meta": {"OBJECT_NAME": "IRIDIUM 33 DEB", "OBJECT_ID": "1997-051CX", "EPOCH": "2025-12-18T20:55:48.154368", "MEAN_MOTION": 14.91652559, "ECCENTRICITY": 0.0006328, "INCLINATION": 86.3844, "RA_OF_ASC_NODE": 27.9062, "ARG_OF_PERICENTER": 156.7967, "MEAN_ANOMALY": 325.6112, "EPHEMERIS_TYPE": 0, "CLASSIFICATION_TYPE": "U", "NORAD_CAT_ID": 34088, "ELEMENT_SET_NO": 999, "REV_AT_EPOCH": 88833, "BSTAR": 0.0018437504, "MEAN_MOTION_DOT": 0.00018581, "MEAN_MOTION_DDOT": 0}, "tle": {"line1": "1 34088U 97051CX  25352.87208512  .00018581  00000+0  18438-2 0  9993", "line2": "2 34088  86.3844  27.9062 0006328 156.7967 325.6112 14.91652559888331"}}, "geometry": {"type": "Point", "coordinates": [-157.18035777286437, 53.66700451305159]}}, {"type": "Feature", "properties": {"norad_id": 34091, "name": "IRIDIUM 33 DEB", "group": "iridium-33-debris", "lat": 86.00086233345351, "lon": 177.66236728672084, "alt_km": 638.324760368132, "timestamp": "2025-12-19T04:59:48.691407+00:00", "meta": {"OBJECT_NAME": "IRIDIUM 33 DEB", "OBJECT_ID": "1997-051DA", "EPOCH": "2025-12-18T04:16:47.373312", "MEAN_MOTION": 14.8221607, "ECCENTRICITY": 0.00338054, "INCLINATION": 86.3422, "RA_OF_ASC_NODE": 64.3429, "ARG_OF_PERICENTER": 273.6022, "MEAN_ANOMALY": 86.1335, "EPHEMERIS_TYPE": 0, "CLASSIFICATION_TYPE": "U", "NORAD_CAT_ID": 34091, "ELEMENT_SET_NO": 999, "REV_AT_EPOCH": 87947, "BSTAR": 0.0037025527, "MEAN_MOTION_DOT": 0.00029931, "MEAN_MOTION_DDOT": 0}, "tle": {"line1": "1 34091U 97051DA  25352.17832608  .00029931  00000+0  37026-2 0  9994", "line2": "2 34091  86.3422  64.3429 0033805 273.6022  86.1335 14.82216070879475"}}, "geometry": {"type": "Point", "coordinates": [177.66236728672084, 86.00086233345351]}}, {"type": "Feature", "properties": {"norad_id": 34097, "name": "IRIDIUM 33 DEB", "group": "iridium-33-debris", "lat": -39.55503056988703, "lon": -4.593822350485669, "alt_km": 727.275045430556, "timestamp": "2025-12-19T04:59:48.691417+00:00", "meta": {"OBJECT_NAME": "IRIDIUM 33 DEB", "OBJECT_ID": "1997-051DG", "EPOCH": "2025-12-18T12:26:28.365504", "MEAN_MOTION": 14.34821944, "ECCENTRICITY": 0.00819543, "INCLINATION": 86.2001, "RA_OF_ASC_NODE": 358.8573, "ARG_OF_PERICENTER": 343.3176, "MEAN_ANOMALY": 16.5326, "EPHEMERIS_TYPE": 0, "CLASSIFICATION_TYPE": "U", "NORAD_CAT_ID": 34097, "ELEMENT_SET_NO": 999, "REV_AT_EPOCH": 87202, "BSTAR": 0.0011048687, "MEAN_MOTION_DOT": 3.274e-05, "MEAN_MOTION_DDOT": 0}, "tle": {"line1": "1 34097U 97051DG  25352.51838386  .00003274  00000+0  11049-2 0  9996", "line2": "2 34097  86.2001 358.8573 0081954 343.3176  16.5326 14.34821944872027"}}, "geometry": {"type": "Point", "coordinates": [-4.593822350485669, -39.55503056988703]}}, {"type": "Feature", "properties": {"norad_id": 34145, "name": "IRIDIUM 33 DEB", "group": "iridium-33-debris", "lat": 44.12330995231115, "lon": -26.66978031697348, "alt_km": 712.303181647063, "timestamp": "2025-12-19T04:59:48.691430+00:00", "meta": {"OBJECT_NAME": "IRIDIUM 33 DEB", "OBJECT_ID": "1997-051DY", "EPOCH": "2025-12-18T08:48:48.486240", "MEAN_MOTION": 14.42328092, "ECCENTRICITY": 0.00557365, "INCLINATION": 86.2113, "RA_OF_ASC_NODE": 330.0199, "ARG_OF_PERICENTER": 75.968, "MEAN_ANOMALY": 284.7708, "EPHEMERIS_TYPE": 0, "CLASSIFICATION_TYPE": "U", "NORAD_CAT_ID": 34145, "ELEMENT_SET_NO": 999, "REV_AT_EPOCH": 87719, "BSTAR": 0.00092678493, "MEAN_MOTION_DOT": 3.137e-05, "MEAN_MOTION_DDOT": 0}, "tle": {"line1": "1 34145U 97051DY  25352.36722785  .00003137  00000+0  92678-3 0  9994", "line2": "2 34145  86.2113 330.0199 0055736  75.9680 284.7708 14.42328092877199"}}, "geometry": {"type": "Point", "coordinates": [-26.66978031697348, 44.12330995231115]}}, {"type": "Feature", "properties": {"norad_id": 34146, "name": "IRIDIUM 33 DEB", "group": "iridium-33-debris", "lat": -19.50938724767565, "lon": 168.26263873939843, "alt_km": 715.3044918209198, "timestamp": "2025-12-19T04:59:48.691442+00:00", "meta": {"OBJECT_NAME": "IRIDIUM 33 DEB", "OBJECT_ID": "1997-051DZ", "EPOCH": "2025-12-18T23:22:46.077024", "MEAN_MOTION": 14.49088603, "ECCENTRICITY": 0.00260878, "INCLINATION": 86.2829, "RA_OF_ASC_NODE": 347.0462, "ARG_OF_PERICENTER": 199.8363, "MEAN_ANOMALY": 219.3623, "EPHEMERIS_TYPE": 0, "CLASSIFICATION_TYPE": "U", "NORAD_CAT_ID": 34146, "ELEMENT_SET_NO": 999, "REV_AT_EPOCH": 88197, "BSTAR": 0.00067792412, "MEAN_MOTION_DOT": 2.605e-05, "MEAN_MOTION_DDOT": 0}, "tle": {"line1": "1 34146U 97051DZ  25352.97414441  .00002605  00000+0  67792-3 0  9997", "line2": "2 34146  86.2829 347.0462 0026087 199.8363 219.3623 14.49088603881975"}}, "geometry": {"type": "Point", "coordinates": [168.26263873939843, -19.50938724767565]}}, {"type": "Feature", "properties": {"norad_id": 34159, "name": "IRIDIUM 33 DEB", "group": "iridium-33-debris", "lat": 28.581568382112263, "lon": 47.47623798899175, "alt_km": 772.4526451981501, "timestamp": "2025-12-19T04:59:48.691453+00:00", "meta": {"OBJECT_NAME": "IRIDIUM 33 DEB", "OBJECT_ID": "1997-051EN", "EPOCH": "2025-12-18T13:50:19.679424", "MEAN_MOTION": 14.38507625, "ECCENTRICITY": 0.00259598, "INCLINATION": 86.35, "RA_OF_ASC_NODE": 45.7526, "ARG_OF_PERICENTER": 267.136, "MEAN_ANOMALY": 92.6867, "EPHEMERIS_TYPE": 0, "CLASSIFICATION_TYPE": "U", "NORAD_CAT_ID": 34159, "ELEMENT_SET_NO": 999, "REV_AT_EPOCH": 88043, "BSTAR": 0.0002959983, "MEAN_MOTION_DOT": 9.27e-06, "MEAN_MOTION_DDOT": 0}, "tle": {"line1": "1 34159U 97051EN  25352.57661666  .00000927  00000+0  29600-3 0  9991", "line2": "2 34159  86.3500  45.7526 0025959 267.1360  92.6867 14.38507625880432"}}, "geometry": {"type": "Point", "coordinates": [47.47623798899175, 28.581568382112263]}}, {"type": "Feature", "properties": {"norad_id": 34350, "name": "IRIDIUM 33 DEB", "group": "iridium-33-debris", "lat": -37.815406710274004, "lon": -177.14224772767182, "alt_km": 750.8086664552493, "timestamp": "2025-12-19T04:59:48.691464+00:00", "meta": {"OBJECT_NAME": "IRIDIUM 33 DEB", "OBJECT_ID": "1997-051ES", "EPOCH": "2025-12-18T12:05:02.649696", "MEAN_MOTION": 14.45400034, "ECCENTRICITY": 0.00232374, "INCLINATION": 86.3272, "RA_OF_ASC_NODE": 0.306, "ARG_OF_PERICENTER": 117.4224, "MEAN_ANOMALY": 35.6002, "EPHEMERIS_TYPE": 0, "CLASSIFICATION_TYPE": "U", "NORAD_CAT_ID": 34350, "ELEMENT_SET_NO": 999, "REV_AT_EPOCH": 88376, "BSTAR": 0.0002607708, "MEAN_MOTION_DOT": 9.4e-06, "MEAN_MOTION_DDOT": 0}, "tle": {"line1": "1 34350U 97051ES  25352.50350289  .00000940  00000+0  26077-3 0  9993", "line2": "2 34350  86.3272   0.3060 0023237 117.4224  35.6002 14.45400034883765"}}, "geometry": {"type": "Point", "coordinates": [-177.14224772767182, -37.815406710274004]}}, {"type": "Feature", "properties": {"norad_id": 34366, "name": "IRIDIUM 33 DEB", "group": "iridium-33-debris", "lat": 27.16175723470566, "lon": 48.36732858242176, "alt_km": 711.8080854664695, "timestamp": "2025-12-19T04:59:48.691474+00:00", "meta": {"OBJECT_NAME": "IRIDIUM 33 DEB", "OBJECT_ID": "1997-051FJ", "EPOCH": "2025-12-18T14:34:32.858400", "MEAN_MOTION": 14.54103617, "ECCENTRICITY": 0.00228949, "INCLINATION": 86.3697, "RA_OF_ASC_NODE": 46.7619, "ARG_OF_PERICENTER": 121.3306, "MEAN_ANOMALY": 2.8167, "EPHEMERIS_TYPE": 0, "CLASSIFICATION_TYPE": "U", "NORAD_CAT_ID": 34366, "ELEMENT_SET_NO": 999, "REV_AT_EPOCH": 88267, "BSTAR": 0.00070491505, "MEAN_MOTION_DOT": 3.008e-05, "MEAN_MOTION_DDOT": 0}, "tle": {"line1": "1 34366U 97051FJ  25352.60732475  .00003008  00000+0  70492-3 0  9990", "line2": "2 34366  86.3697  46.7619 0022894 121.3306   2.8167 14.54103617882674"}}, "geometry": {"type": "Point", "coordinates": [48.36732858242176, 27.16175723470566]}}]}